NORAD_CAT_ID,OBJECT_NAME,OBJECT_TYPE,EPOCH,MEAN_MOTION,ECCENTRICITY,INCLINATION,RA_OF_ASC_NODE,ARG_OF_PERICENTER,MEAN_ANOMALY,BSTAR,MEAN_MOTION_DOT,MEAN_MOTION_DDOT,TLE_LINE0,TLE_LINE1,TLE_LINE2,SEMIMAJOR_AXIS,PERIOD,APOGEE,PERIGEE,DECAYED
51143.0,STARLINK-3184,PAYLOAD,2023-04-10 03:24:26,15.08847425,0.0001139,53.2183,48.0608,101.8695,258.2425,0.00029186,4.361e-05,0.0,0 STARLINK-3184,1 51143U 22005AR  23100.14197697  .00004361  00000-0  29186-3 0  9996,2 51143  53.2183  48.0608 0001139 101.8695 258.2425 15.08847425 68992,6917.858,95.437,540.511,538.935,0.0
51143.0,STARLINK-3184,PAYLOAD,2023-04-10 20:53:41,15.08847988,0.0001021,53.2177,44.7882,99.9697,260.141,0.00025375,3.754e-05,0.0,0 STARLINK-3184,1 51143U 22005AR  23100.87061547  .00003754  00000-0  25375-3 0  9991,2 51143  53.2177  44.7882 0001021  99.9697 260.1410 15.08847988 67990,6917.856,95.437,540.427,539.015,0.0
51143.0,STARLINK-3184,PAYLOAD,2023-04-11 06:25:59,15.08865456,9.18e-05,53.2166,43.0027,97.9607,262.149,0.00054958,8.476e-05,0.0,0 STARLINK-3184,1 51143U 22005AR  23101.26804650  .00008476  00000-0  54958-3 0  9990,2 51143  53.2166  43.0027 0000918  97.9607 262.1490 15.08865456 68052,6917.803,95.436,540.303,539.033,0.0
51143.0,STARLINK-3184,PAYLOAD,2023-04-12 03:06:00,15.08833327,0.0001272,53.2161,39.1331,123.2861,236.8253,-9.0694e-05,-1.731e-05,0.0,0 STARLINK-3184,1 51143U 22005AR  23102.12917625 -.00001731  00000-0 -90694-4 0  9990,2 51143  53.2161  39.1331 0001272 123.2861 236.8253 15.08833327 69294,6917.901,95.438,540.646,538.886,0.0
51143.0,STARLINK-3184,PAYLOAD,2023-04-12 12:38:19,15.08836658,0.0001079,53.2168,37.3535,88.6442,271.4674,6.6436e-05,7.7e-06,0.0,0 STARLINK-3184,1 51143U 22005AR  23102.52662004  .00000770  00000-0  66436-4 0  9999,2 51143  53.2168  37.3535 0001079  88.6442 271.4674 15.08836658 68247,6917.891,95.438,540.502,539.009,0.0
51143.0,STARLINK-3184,PAYLOAD,2023-04-13 04:32:11,15.08847981,0.0001112,53.2169,34.3794,86.8655,273.2464,0.00066082,0.00010247,0.0,0 STARLINK-3184,1 51143U 22005AR  23103.18902075  .00010247  00000-0  66082-3 0  9993,2 51143  53.2169  34.3794 0001112  86.8655 273.2464 15.08847981 68345,6917.856,95.437,540.49,538.952,0.0
51143.0,STARLINK-3184,PAYLOAD,2023-04-14 04:22:58,15.0885367,0.000115,53.2162,29.92,77.2982,282.8138,0.00070525,0.00010958,0.0,0 STARLINK-3184,1 51143U 22005AR  23104.18261983  .00010958  00000-0  70525-3 0  9996,2 51143  53.2162  29.9200 0001150  77.2982 282.8138 15.08853670 68491,6917.839,95.437,540.499,538.908,0.0
51143.0,STARLINK-3184,PAYLOAD,2023-04-15 04:13:45,15.08865409,0.0001136,53.2164,25.4582,86.6579,273.4543,0.00099535,0.00015599,0.0,0 STARLINK-3184,1 51143U 22005AR  23105.17621631  .00015599  00000-0  99535-3 0  9994,2 51143  53.2164  25.4582 0001136  86.6579 273.4543 15.08865409 69756,6917.803,95.436,540.454,538.882,0.0
51143.0,STARLINK-3184,PAYLOAD,2023-04-15 21:43:00,15.08845349,0.0001334,53.2166,22.1877,97.8074,262.307,0.00089598,0.00014002,0.0,0 STARLINK-3184,1 51143U 22005AR  23105.90486377  .00014002  00000-0  89598-3 0  9997,2 51143  53.2166  22.1877 0001334  97.8074 262.3070 15.08845349 68755,6917.864,95.437,540.652,538.806,0.0
51143.0,STARLINK-3184,PAYLOAD,2023-04-16 04:04:32,15.08850194,0.0001293,53.2174,20.9986,69.8244,290.2887,0.0014113,0.0002225,0.0,0 STARLINK-3184,1 51143U 22005AR  23106.16982488  .00022250  00000-0  14113-2 0  9994,2 51143  53.2174  20.9986 0001293  69.8244 290.2887 15.08850194 68797,6917.849,95.437,540.609,538.82,0.0
51143.0,STARLINK-3184,PAYLOAD,2023-04-16 21:33:47,15.08845224,0.0001342,53.2164,17.7248,79.1813,280.933,0.00068471,0.00010628,0.0,0 STARLINK-3184,1 51143U 22005AR  23106.89846671  .00010628  00000-0  68471-3 0  9990,2 51143  53.2164  17.7248 0001342  79.1813 280.9330 15.08845224 68902,6917.864,95.437,540.658,538.801,0.0
51143.0,STARLINK-3184,PAYLOAD,2023-04-17 03:55:19,15.08856679,0.0001357,53.218,16.5366,91.2059,268.9089,0.0014248,0.00022471,0.0,0 STARLINK-3184,1 51143U 22005AR  23107.16342409  .00022471  00000-0  14248-2 0  9992,2 51143  53.2180  16.5366 0001357  91.2059 268.9089 15.08856679 68948,6917.829,95.436,540.633,538.756,0.0
51143.0,STARLINK-3184,PAYLOAD,2023-04-17 21:24:34,15.08843516,0.0001011,53.2176,13.2668,106.8682,253.2421,0.00062282,9.639e-05,0.0,0 STARLINK-3184,1 51143U 22005AR  23107.89206513  .00009639  00000-0  62282-3 0  9990,2 51143  53.2176  13.2668 0001011 106.8682 253.2421 15.08843516 69050,6917.87,95.437,540.434,539.035,0.0
51143.0,STARLINK-3184,PAYLOAD,2023-04-18 03:46:06,15.08860177,7.88e-05,53.2176,12.0786,93.7188,266.3895,0.0015807,0.00024972,0.0,0 STARLINK-3184,1 51143U 22005AR  23108.15702330  .00024972  00000-0  15807-2 0  9995,2 51143  53.2176  12.0786 0000788  93.7188 266.3895 15.08860177 70204,6917.819,95.436,540.229,539.139,0.0
51143.0,STARLINK-3184,PAYLOAD,2023-04-18 18:04:35,15.08838006,0.0001458,53.2181,9.4006,92.1832,267.9327,0.0013625,0.00021461,0.0,0 STARLINK-3184,1 51143U 22005AR  23108.75318931  .00021461  00000-0  13625-2 0  9997,2 51143  53.2181   9.4006 0001458  92.1832 267.9327 15.08838006 70291,6917.886,95.438,540.76,538.743,0.0
51143.0,STARLINK-3184,PAYLOAD,2023-04-19 03:36:54,15.08849153,7.25e-05,53.2168,7.6171,80.9512,279.1563,0.0008303,0.00012954,0.0,0 STARLINK-3184,1 51143U 22005AR  23109.15062779  .00012954  00000-0  83030-3 0  9993,2 51143  53.2168   7.6171 0000725  80.9512 279.1563 15.08849153 69240,6917.852,95.437,540.219,539.216,0.0
51143.0,STARLINK-3184,PAYLOAD,2023-04-20 01:52:17,15.08864321,8.35e-05,53.2165,3.4546,67.6694,292.4387,0.00085195,0.00013306,0.0,0 STARLINK-3184,1 51143U 22005AR  23110.07798160  .00013306  00000-0  85195-3 0  9992,2 51143  53.2165   3.4546 0000835  67.6694 292.4387 15.08864321 70497,6917.806,95.436,540.249,539.093,0.0
51143.0,STARLINK-3184,PAYLOAD,2023-04-21 04:53:51,15.08837811,9.6e-05,53.2166,358.3995,75.987,284.1229,0.00021898,3.199e-05,0.0,0 STARLINK-3184,1 51143U 22005AR  23111.20407230  .00003199  00000-0  21898-3 0  9992,2 51143  53.2166 358.3995 0000960  75.9870 284.1229 15.08837811 69557,6917.887,95.438,540.416,539.088,0.0
51143.0,STARLINK-3184,PAYLOAD,2023-04-21 22:23:06,15.08846428,9.92e-05,53.217,355.1266,87.2353,272.8753,0.0006103,9.44e-05,0.0,0 STARLINK-3184,1 51143U 22005AR  23111.93271343  .00009440  00000-0  61030-3 0  9993,2 51143  53.2170 355.1266 0000992  87.2353 272.8753 15.08846428 69667,6917.861,95.437,540.412,539.039,0.0
51143.0,STARLINK-3184,PAYLOAD,2023-04-22 01:33:52,15.08859371,9.12e-05,53.2166,354.5327,89.7083,270.4013,0.00085293,0.0001332,0.0,0 STARLINK-3184,1 51143U 22005AR  23112.06518775  .00013320  00000-0  85293-3 0  9990,2 51143  53.2166 354.5327 0000912  89.7083 270.4013 15.08859371 70792,6917.821,95.436,540.317,539.055,0.0
51143.0,STARLINK-3184,PAYLOAD,2023-04-22 22:13:52,15.08848201,0.00011,53.2155,350.6635,94.7181,265.3937,0.00039375,5.986e-05,0.0,0 STARLINK-3184,1 51143U 22005AR  23112.92630714  .00005986  00000-0  39375-3 0  9992,2 51143  53.2155 350.6635 0001100  94.7181 265.3937 15.08848201 69813,6917.855,95.437,540.481,538.959,0.0
51143.0,STARLINK-3184,PAYLOAD,2023-04-23 01:24:39,15.08857477,0.0001172,53.2166,350.0728,78.6014,281.511,0.00049099,7.539e-05,0.0,0 STARLINK-3184,1 51143U 22005AR  23113.05878609  .00007539  00000-0  49099-3 0  9994,2 51143  53.2166 350.0728 0001172  78.6014 281.5110 15.08857477 69837,6917.827,95.436,540.503,538.881,0.0
51143.0,STARLINK-3184,PAYLOAD,2023-04-23 15:43:07,15.08844248,0.000127,53.2162,347.396,66.7492,293.3633,0.00068562,0.00010642,0.0,0 STARLINK-3184,1 51143U 22005AR  23113.65494847  .00010642  00000-0  68562-3 0  9993,2 51143  53.2162 347.3960 0001270  66.7492 293.3633 15.08844248 71035,6917.867,95.437,540.611,538.854,0.0
51143.0,STARLINK-3184,PAYLOAD,2023-04-23 18:53:53,15.08847592,0.0001027,53.2166,346.8021,75.684,284.4266,0.0010448,0.00016383,0.0,0 STARLINK-3184,1 51143U 22005AR  23113.78742812  .00016383  00000-0  10448-2 0  9992,2 51143  53.2166 346.8021 0001027  75.6840 284.4266 15.08847592 69942,6917.857,95.437,540.433,539.012,0.0
51143.0,STARLINK-3184,PAYLOAD,2023-04-24 01:15:26,15.08862527,0.0001235,53.2169,345.6126,76.625,283.488,0.0015047,0.00023755,0.0,0 STARLINK-3184,1 51143U 22005AR  23114.05238570  .00023755  00000-0  15047-2 0  9995,2 51143  53.2169 345.6126 0001235  76.6250 283.4880 15.08862527 71090,6917.812,95.436,540.531,538.822,0.0
51143.0,STARLINK-3184,PAYLOAD,2023-04-25 02:41:34,15.08885867,0.0001317,53.2167,340.8556,76.8031,283.3108,0.000786,0.00012259,0.0,0 STARLINK-3184,1 51143U 22005AR  23115.11220283  .00012259  00000-0  78600-3 0  9997,2 51143  53.2167 340.8556 0001317  76.8031 283.3108 15.08885867 71254,6917.74,95.435,540.516,538.694,0.0
51143.0,STARLINK-3184,PAYLOAD,2023-04-26 02:32:23,15.08820906,0.0001254,53.2169,336.3945,98.1141,261.9993,0.001271,0.00019987,0.0,0 STARLINK-3184,1 51143U 22005AR  23116.10582487  .00019987  00000-0  12710-2 0  9998,2 51143  53.2169 336.3945 0001254  98.1141 261.9993 15.08820906 70297,6917.939,95.439,540.671,538.936,0.0
51143.0,STARLINK-3184,PAYLOAD,2023-04-26 21:37:02,15.08801885,0.0001012,53.2159,332.8255,112.2251,247.8848,0.00020174,2.921e-05,0.0,0 STARLINK-3184,1 51143U 22005AR  23116.90072122  .00002921  00000-0  20174-3 0  9990,2 51143  53.2159 332.8255 0001012 112.2251 247.8848 15.08801885 70414,6917.997,95.44,540.562,539.162,0.0
51143.0,STARLINK-3184,PAYLOAD,2023-04-27 00:47:48,15.08799906,0.0001235,53.2159,332.2304,108.3804,251.7323,0.00023433,3.439e-05,0.0,0 STARLINK-3184,1 51143U 22005AR  23117.03320376  .00003439  00000-0  23433-3 0  9998,2 51143  53.2159 332.2304 0001235 108.3804 251.7323 15.08799906 71547,6918.003,95.44,540.722,539.014,0.0
51143.0,STARLINK-3184,PAYLOAD,2023-04-27 18:17:03,15.08825741,9.78e-05,53.2158,328.9583,100.6269,259.4833,0.0003253,4.891e-05,0.0,0 STARLINK-3184,1 51143U 22005AR  23117.76185159  .00004891  00000-0  32530-3 0  9997,2 51143  53.2158 328.9583 0000978 100.6269 259.4833 15.08825741 71650,6917.924,95.438,540.466,539.112,0.0
